start=new Date('2021-12-06T00:00:00.000Z').valueOf();
sats=[{"MEAN_ANOMALY":"277.0994","MEAN_MOTION":"15.08759960","MEAN_MOTION_DOT":"0.00004968","ELEMENT_SET_NO":"999","LAUNCH_DATE":"2020-01-07","GP_ID":"191168999","REV_AT_EPOCH":"10581","NORAD_CAT_ID":"44946","EPOCH":"2021-12-05T19:38:12.604416","SITE":"AFETR","REF_FRAME":"TEME","MEAN_ELEMENT_THEORY":"SGP4","CENTER_NAME":"EARTH","DECAY_DATE":null,"COUNTRY_CODE":"US","ECCENTRICITY":"0.00014940","FILE":"3233515","RA_OF_ASC_NODE":"102.0397","MEAN_MOTION_DDOT":"0.0000000000000","OBJECT_TYPE":"PAYLOAD","EPHEMERIS_TYPE":"0","PERIOD":"95.443","OBJECT_ID":"2020-001AJ","TLE_LINE2":"2 44946  53.0040 102.0397 0001494  83.0165 277.0994 15.08759960105817","INCLINATION":"53.0040","RCS_SIZE":"LARGE","BSTAR":"0.00033069000000","PERIAPSIS":"538.956","APOAPSIS":"541.024","ARG_OF_PERICENTER":"83.0165","CLASSIFICATION_TYPE":"U","OBJECT_NAME":"STARLINK-1110","SEMIMAJOR_AXIS":"6918.125","TIME_SYSTEM":"UTC","TLE_LINE1":"1 44946U 20001AJ  21339.81820144  .00004968  00000-0  33069-3 0  9997"},{"LAUNCH_DATE":"2020-01-07","MEAN_MOTION_DOT":"0.00001561","ELEMENT_SET_NO":"999","MEAN_ANOMALY":"269.3876","MEAN_MOTION":"15.06398395","NORAD_CAT_ID":"44947","REV_AT_EPOCH":"10577","GP_ID":"191167747","REF_FRAME":"TEME","MEAN_ELEMENT_THEORY":"SGP4","SITE":"AFETR","EPOCH":"2021-12-05T19:50:06.907776","ECCENTRICITY":"0.00014270","COUNTRY_CODE":"US","CENTER_NAME":"EARTH","DECAY_DATE":null,"EPHEMERIS_TYPE":"0","OBJECT_TYPE":"PAYLOAD","FILE":"3233515","RA_OF_ASC_NODE":"106.6659","MEAN_MOTION_DDOT":"0.0000000000000","RCS_SIZE":"LARGE","TLE_LINE2":"2 44947  53.0540 106.6659 0001427  90.7277 269.3876 15.06398395105776","OBJECT_ID":"2020-001AK","INCLINATION":"53.0540","PERIOD":"95.592","OBJECT_NAME":"STARLINK-1116","ARG_OF_PERICENTER":"90.7277","CLASSIFICATION_TYPE":"U","BSTAR":"0.00012367000000","APOAPSIS":"548.207","PERIAPSIS":"546.230","TIME_SYSTEM":"UTC","TLE_LINE1":"1 44947U 20001AK  21339.82646884  .00001561  00000-0  12367-3 0  9990","SEMIMAJOR_AXIS":"6925.353"},{"CENTER_NAME":"EARTH","DECAY_DATE":null,"ECCENTRICITY":"0.00016020","COUNTRY_CODE":"US","EPOCH":"2021-12-05T20:27:16.494336","SITE":"AFETR","MEAN_ELEMENT_THEORY":"SGP4","REF_FRAME":"TEME","GP_ID":"191168498","REV_AT_EPOCH":"10577","NORAD_CAT_ID":"44949","MEAN_ANOMALY":"270.3358","MEAN_MOTION":"15.06398813","MEAN_MOTION_DOT":"-0.00000438","ELEMENT_SET_NO":"999","LAUNCH_DATE":"2020-01-07","SEMIMAJOR_AXIS":"6925.352","TIME_SYSTEM":"UTC","TLE_LINE1":"1 44949U 20001AM  21339.85227424 -.00000438  00000-0 -10511-4 0  9994","BSTAR":"-0.00001051100000","PERIAPSIS":"546.108","APOAPSIS":"548.327","ARG_OF_PERICENTER":"89.7814","CLASSIFICATION_TYPE":"U","OBJECT_NAME":"STARLINK-1122","PERIOD":"95.592","TLE_LINE2":"2 44949  53.0558 106.5667 0001602  89.7814 270.3358 15.06398813105777","OBJECT_ID":"2020-001AM","INCLINATION":"53.0558","RCS_SIZE":"LARGE","FILE":"3233515","MEAN_MOTION_DDOT":"0.0000000000000","RA_OF_ASC_NODE":"106.5667","OBJECT_TYPE":"PAYLOAD","EPHEMERIS_TYPE":"0"},{"RA_OF_ASC_NODE":"106.4936","MEAN_MOTION_DDOT":"0.0000000000000","FILE":"3233515","OBJECT_TYPE":"PAYLOAD","EPHEMERIS_TYPE":"0","PERIOD":"95.592","INCLINATION":"53.0536","OBJECT_ID":"2020-001AN","TLE_LINE2":"2 44950  53.0536 106.4936 0001678  91.5959 268.5223 15.06395572105776","RCS_SIZE":"LARGE","APOAPSIS":"548.389","PERIAPSIS":"546.065","BSTAR":"0.00013553000000","CLASSIFICATION_TYPE":"U","ARG_OF_PERICENTER":"91.5959","OBJECT_NAME":"STARLINK-1125","SEMIMAJOR_AXIS":"6925.362","TLE_LINE1":"1 44950U 20001AN  21339.86701588  .00001737  00000-0  13553-3 0  9994","TIME_SYSTEM":"UTC","MEAN_MOTION":"15.06395572","MEAN_ANOMALY":"268.5223","MEAN_MOTION_DOT":"0.00001737","ELEMENT_SET_NO":"999","LAUNCH_DATE":"2020-01-07","GP_ID":"191168749","REV_AT_EPOCH":"10577","NORAD_CAT_ID":"44950","EPOCH":"2021-12-05T20:48:30.172032","SITE":"AFETR","REF_FRAME":"TEME","MEAN_ELEMENT_THEORY":"SGP4","DECAY_DATE":null,"CENTER_NAME":"EARTH","COUNTRY_CODE":"US","ECCENTRICITY":"0.00016780"},{"MEAN_ELEMENT_THEORY":"SGP4","REF_FRAME":"TEME","SITE":"AFETR","EPOCH":"2021-12-05T19:42:23.609376","ECCENTRICITY":"0.00013600","COUNTRY_CODE":"US","CENTER_NAME":"EARTH","DECAY_DATE":null,"LAUNCH_DATE":"2020-01-07","MEAN_MOTION_DOT":"0.00004986","ELEMENT_SET_NO":"999","MEAN_ANOMALY":"277.0160","MEAN_MOTION":"15.08595124","NORAD_CAT_ID":"44951","REV_AT_EPOCH":"10709","GP_ID":"191169500","OBJECT_NAME":"STARLINK-1126","CLASSIFICATION_TYPE":"U","ARG_OF_PERICENTER":"83.0984","BSTAR":"0.00033327000000","PERIAPSIS":"539.553","APOAPSIS":"541.435","TIME_SYSTEM":"UTC","TLE_LINE1":"1 44951U 20001AP  21339.82110659  .00004986  00000-0  33327-3 0  9994","SEMIMAJOR_AXIS":"6918.629","EPHEMERIS_TYPE":"0","OBJECT_TYPE":"PAYLOAD","FILE":"3233515","RA_OF_ASC_NODE":"102.6066","MEAN_MOTION_DDOT":"0.0000000000000","RCS_SIZE":"LARGE","TLE_LINE2":"2 44951  53.0032 102.6066 0001360  83.0984 277.0160 15.08595124107091","OBJECT_ID":"2020-001AP","INCLINATION":"53.0032","PERIOD":"95.453"},{"OBJECT_NAME":"STARLINK-1117","APOAPSIS":"548.163","PERIAPSIS":"546.275","BSTAR":"-0.00002333000000","CLASSIFICATION_TYPE":"U","ARG_OF_PERICENTER":"93.2782","TLE_LINE1":"1 44952U 20001AQ  21339.83384520 -.00000629  00000-0 -23330-4 0  9992","TIME_SYSTEM":"UTC","SEMIMAJOR_AXIS":"6925.354","OBJECT_TYPE":"PAYLOAD","EPHEMERIS_TYPE":"0","MEAN_MOTION_DDOT":"0.0000000000000","RA_OF_ASC_NODE":"106.6383","FILE":"3233515","RCS_SIZE":"LARGE","PERIOD":"95.592","INCLINATION":"53.0540","TLE_LINE2":"2 44952  53.0540 106.6383 0001363  93.2782 266.8363 15.06398162105779","OBJECT_ID":"2020-001AQ","SITE":"AFETR","MEAN_ELEMENT_THEORY":"SGP4","REF_FRAME":"TEME","EPOCH":"2021-12-05T20:00:44.225280","COUNTRY_CODE":"US","ECCENTRICITY":"0.00013630","DECAY_DATE":null,"CENTER_NAME":"EARTH","ELEMENT_SET_NO":"999","MEAN_MOTION_DOT":"-0.00000629","LAUNCH_DATE":"2020-01-07","MEAN_MOTION":"15.06398162","MEAN_ANOMALY":"266.8363","NORAD_CAT_ID":"44952","GP_ID":"191168248","REV_AT_EPOCH":"10577"},{"RCS_SIZE":"LARGE","INCLINATION":"53.0485","TLE_LINE2":"2 44953  53.0485 106.5881 0001486  92.1308 267.9851 15.06396673107061","OBJECT_ID":"2020-001AR","PERIOD":"95.592","EPHEMERIS_TYPE":"0","OBJECT_TYPE":"PAYLOAD","MEAN_MOTION_DDOT":"0.0000000000000","RA_OF_ASC_NODE":"106.5881","FILE":"3233515","TLE_LINE1":"1 44953U 20001AR  21339.85133060  .00000030  00000-0  20924-4 0  9996","TIME_SYSTEM":"UTC","SEMIMAJOR_AXIS":"6925.359","OBJECT_NAME":"STARLINK-1124","ARG_OF_PERICENTER":"92.1308","CLASSIFICATION_TYPE":"U","APOAPSIS":"548.253","PERIAPSIS":"546.195","BSTAR":"0.00002092400000","NORAD_CAT_ID":"44953","REV_AT_EPOCH":"10706","GP_ID":"191167998","LAUNCH_DATE":"2020-01-07","ELEMENT_SET_NO":"999","MEAN_MOTION_DOT":"0.00000030","MEAN_MOTION":"15.06396673","MEAN_ANOMALY":"267.9851","ECCENTRICITY":"0.00014860","COUNTRY_CODE":"US","DECAY_DATE":null,"CENTER_NAME":"EARTH","REF_FRAME":"TEME","MEAN_ELEMENT_THEORY":"SGP4","SITE":"AFETR","EPOCH":"2021-12-05T20:25:54.963840"},{"OBJECT_NAME":"STARLINK-1066","ARG_OF_PERICENTER":"78.3068","CLASSIFICATION_TYPE":"U","APOAPSIS":"548.152","PERIAPSIS":"546.324","BSTAR":"0.00003404900000","TLE_LINE1":"1 44954U 20001AS  21339.79882963  .00000226  00000-0  34049-4 0  9993","TIME_SYSTEM":"UTC","SEMIMAJOR_AXIS":"6925.373","EPHEMERIS_TYPE":"0","OBJECT_TYPE":"PAYLOAD","RA_OF_ASC_NODE":"86.7950","MEAN_MOTION_DDOT":"0.0000000000000","FILE":"3233515","RCS_SIZE":"LARGE","INCLINATION":"53.0539","TLE_LINE2":"2 44954  53.0539  86.7950 0001320  78.3068 281.8069 15.06392018105999","OBJECT_ID":"2020-001AS","PERIOD":"95.593","REF_FRAME":"TEME","MEAN_ELEMENT_THEORY":"SGP4","SITE":"AFETR","EPOCH":"2021-12-05T19:10:18.880032","COUNTRY_CODE":"US","ECCENTRICITY":"0.00013200","DECAY_DATE":null,"CENTER_NAME":"EARTH","LAUNCH_DATE":"2020-01-07","ELEMENT_SET_NO":"999","MEAN_MOTION_DOT":"0.00000226","MEAN_MOTION":"15.06392018","MEAN_ANOMALY":"281.8069","NORAD_CAT_ID":"44954","REV_AT_EPOCH":"10599","GP_ID":"191169250"},{"EPOCH":"2021-12-05T17:45:23.462496","SITE":"AFETR","MEAN_ELEMENT_THEORY":"SGP4","REF_FRAME":"TEME","DECAY_DATE":null,"CENTER_NAME":"EARTH","COUNTRY_CODE":"US","ECCENTRICITY":"0.00011690","MEAN_MOTION":"15.06397570","MEAN_ANOMALY":"276.0828","MEAN_MOTION_DOT":"0.00000047","ELEMENT_SET_NO":"999","LAUNCH_DATE":"2020-01-07","GP_ID":"191169000","REV_AT_EPOCH":"10598","NORAD_CAT_ID":"44955","APOAPSIS":"548.031","PERIAPSIS":"546.411","BSTAR":"0.00002203500000","ARG_OF_PERICENTER":"84.0294","CLASSIFICATION_TYPE":"U","OBJECT_NAME":"STARLINK-1069","SEMIMAJOR_AXIS":"6925.356","TLE_LINE1":"1 44955U 20001AT  21339.73985489  .00000047  00000-0  22035-4 0  9998","TIME_SYSTEM":"UTC","MEAN_MOTION_DDOT":"0.0000000000000","RA_OF_ASC_NODE":"87.0715","FILE":"3233515","OBJECT_TYPE":"PAYLOAD","EPHEMERIS_TYPE":"0","PERIOD":"95.592","INCLINATION":"53.0561","OBJECT_ID":"2020-001AT","TLE_LINE2":"2 44955  53.0561  87.0715 0001169  84.0294 276.0828 15.06397570105980","RCS_SIZE":"LARGE"},{"BSTAR":"0.00014990000000","PERIAPSIS":"546.320","APOAPSIS":"548.118","ARG_OF_PERICENTER":"87.7702","CLASSIFICATION_TYPE":"U","OBJECT_NAME":"STARLINK-1070","SEMIMAJOR_AXIS":"6925.354","TIME_SYSTEM":"UTC","TLE_LINE1":"1 44956U 20001AU  21339.93520154  .00001952  00000-0  14990-3 0  9991","FILE":"3233515","MEAN_MOTION_DDOT":"0.0000000000000","RA_OF_ASC_NODE":"86.1900","OBJECT_TYPE":"PAYLOAD","EPHEMERIS_TYPE":"0","PERIOD":"95.592","OBJECT_ID":"2020-001AU","TLE_LINE2":"2 44956  53.0548  86.1900 0001298  87.7702 272.3435 15.06398318106074","INCLINATION":"53.0548","RCS_SIZE":"LARGE","EPOCH":"2021-12-05T22:26:41.413056","SITE":"AFETR","REF_FRAME":"TEME","MEAN_ELEMENT_THEORY":"SGP4","CENTER_NAME":"EARTH","DECAY_DATE":null,"COUNTRY_CODE":"US","ECCENTRICITY":"0.00012980","MEAN_ANOMALY":"272.3435","MEAN_MOTION":"15.06398318","ELEMENT_SET_NO":"999","MEAN_MOTION_DOT":"0.00001952","LAUNCH_DATE":"2020-01-07","GP_ID":"191167748","REV_AT_EPOCH":"10607","NORAD_CAT_ID":"44956"}];
